{"fetched_at":"2026-07-09T08:01:27.804Z","source":"https://celestrak.org/NORAD/elements/gp.php?NAME=SENTINEL&FORMAT=JSON","constellation":"sentinel-2","records":[{"OBJECT_NAME":"SENTINEL-2B","OBJECT_ID":"2017-013A","EPOCH":"2026-07-08T22:56:16.519200","CLASSIFICATION_TYPE":"U","MEAN_MOTION":14.3081365,"ECCENTRICITY":0.00011992,"INCLINATION":98.5681,"RA_OF_ASC_NODE":264.4227,"ARG_OF_PERICENTER":90.919,"MEAN_ANOMALY":269.213,"EPHEMERIS_TYPE":0,"NORAD_CAT_ID":42063,"ELEMENT_SET_NO":999,"REV_AT_EPOCH":48775,"BSTAR":-0.000010743673,"MEAN_MOTION_DOT":-7.2e-7,"MEAN_MOTION_DDOT":0},{"OBJECT_NAME":"SENTINEL-2C","OBJECT_ID":"2024-157A","EPOCH":"2026-07-08T18:44:33.068256","CLASSIFICATION_TYPE":"U","MEAN_MOTION":14.3081452,"ECCENTRICITY":0.00009421,"INCLINATION":98.5685,"RA_OF_ASC_NODE":264.2568,"ARG_OF_PERICENTER":97.3692,"MEAN_ANOMALY":262.7598,"EPHEMERIS_TYPE":0,"NORAD_CAT_ID":60989,"ELEMENT_SET_NO":999,"REV_AT_EPOCH":9607,"BSTAR":0.000038245535,"MEAN_MOTION_DOT":5.7e-7,"MEAN_MOTION_DDOT":0}]}
