SENTINEL-2B             
1 42063U 17013A   26189.95574675 -.00000072  00000+0 -10744-4 0  9991
2 42063  98.5681 264.4227 0001199  90.9190 269.2130 14.30813650487754
SENTINEL-2C             
1 60989U 24157A   26189.78093829  .00000057  00000+0  38246-4 0  9991
2 60989  98.5685 264.2568 0000942  97.3692 262.7598 14.30814520 96078
